OBJECT_NAME,OBJECT_ID,EPOCH,MEAN_MOTION,ECCENTRICITY,INCLINATION,RA_OF_ASC_NODE,ARG_OF_PERICENTER,MEAN_ANOMALY,EPHEMERIS_TYPE,CLASSIFICATION_TYPE,NORAD_CAT_ID,ELEMENT_SET_NO,REV_AT_EPOCH,BSTAR,MEAN_MOTION_DOT,MEAN_MOTION_DDOT
SL-3 R/B,1983-010B,2022-02-25T03:21:01.382112,15.16703042,.0031854,81.1165,316.7909,20.1299,340.1177,0,U,13819,999,13334,.94466E-4,.1899E-4,0
COSMOS 1455,1983-037A,2022-02-25T10:03:05.008608,15.19693516,.0017703,82.5163,191.7133,76.3805,283.9400,0,U,14032,999,12145,.12204E-3,.2647E-4,0
SL-3 R/B,1983-075B,2022-02-25T11:06:54.237600,15.11969997,.0037398,97.4699,33.9227,339.4305,20.5418,0,U,14208,999,10637,.10726E-3,.1804E-4,0
COSMOS 1500,1983-099A,2022-02-24T16:15:26.118432,15.20212825,.0013096,82.5124,87.4353,235.8744,124.1249,0,U,14372,999,9747,.11198E-3,.2463E-4,0
COSMOS 1536,1984-013A,2022-02-25T10:17:04.703424,15.06168827,.0011797,82.5248,108.7528,328.9051,31.1476,0,U,14699,999,7101,.8167E-4,.1225E-4,0
COSMOS 1544,1984-027A,2022-02-25T12:22:12.614592,15.30431812,.0014329,82.4800,99.7323,110.3697,249.9084,0,U,14819,999,7753,.15051E-3,.4475E-4,0
SL-14 R/B,1984-027B,2022-02-24T20:40:28.608672,14.83762709,.001915,82.5452,184.3807,161.5982,198.5930,0,U,14820,999,5005,.22646E-4,.212E-5,0
ERBS,1984-108B,2022-02-24T21:51:52.835616,15.58356710,.0011297,57.0016,260.9201,137.8942,222.2989,0,U,15354,999,6347,.22174E-3,.16689E-3,0
SL-8 R/B,1985-006B,2022-02-24T13:10:56.515872,14.36424741,.0018608,74.0441,90.2758,4.7875,103.7110,0,U,15483,999,94254,.16903E-4,.23E-6,0
COSMOS 1626,1985-009A,2022-02-24T20:35:13.571808,15.25934461,.0003124,82.4807,331.3105,128.5593,231.5925,0,U,15494,999,2944,.13689E-3,.3544E-4,0
SL-12 R/B(2),1985-042D,2022-02-24T22:10:49.890720,14.21318470,.0037777,71.1099,319.4669,259.0340,175.0439,0,U,15772,999,90494,.59267E-4,.82E-6,0
SL-14 R/B,1985-069B,2022-02-25T11:07:25.574880,14.84142549,.002039,82.5304,327.3826,27.8941,332.3363,0,U,15945,999,97527,.19573E-4,.188E-5,0
SL-3 R/B,1985-090B,2022-02-24T14:19:31.211328,16.01550342,.0005375,97.4338,284.8620,93.4893,266.7000,0,U,16111,999,1202,.43946E-3,.243068E-2,.27121E-4
SL-16 R/B,1985-097B,2022-02-24T21:31:48.969120,14.16268357,.0008489,71.0053,2.3610,327.8047,86.9967,0,U,16182,999,87853,.14763E-3,.245E-5,0
SL-14 R/B,1986-006B,2022-02-24T22:19:17.449248,14.84243374,.0019481,82.5260,203.3897,168.4595,307.6486,0,U,16496,999,95153,.23418E-4,.221E-5,0
COSMOS 1743,1986-034A,2022-02-25T02:56:43.010592,15.16648138,.001336,82.5505,111.4976,100.6681,317.9151,0,U,16719,999,95530,.75062E-4,.1503E-4,0
SL-14 R/B,1986-046B,2022-02-24T22:01:14.185056,14.83345187,.0025401,82.4831,29.6222,52.0766,308.2739,0,U,16792,999,90777,.24574E-4,.227E-5,0
SL-14 R/B,1986-055B,2022-02-25T03:13:12.129024,14.83331793,.0020472,82.5184,68.8306,153.7527,271.6586,0,U,16882,999,92194,.18711E-4,.178E-5,0
AJISAI (EGS),1986-061A,2022-02-25T11:15:24.211872,12.44495462,.0011379,50.0096,303.3795,136.4064,279.3766,0,U,16908,999,28490,.16376E-3,-.74E-6,0
COSMOS 1812,1987-003A,2022-02-24T18:44:28.953024,15.16739949,.0002547,82.5109,256.8052,340.5232,19.5903,0,U,17295,999,91821,.11043E-3,.2195E-4,0
SL-14 R/B,1987-024B,2022-02-25T09:49:16.277088,14.83865456,.0020722,82.5288,34.3725,90.3305,270.0285,0,U,17567,999,89065,.24519E-4,.229E-5,0
COSMOS 1833,1987-027A,2022-02-24T18:58:34.882464,14.12924550,.0027802,70.9220,183.6960,267.4030,92.3908,0,U,17589,999,80211,-.58928E-4,-.158E-5,0
SL-16 R/B,1987-027B,2022-02-24T16:28:57.882720,14.16814858,.0006593,71.0035,141.5391,227.8167,132.2397,0,U,17590,999,80658,.8416E-4,.121E-5,0
SL-14 R/B,1987-038B,2022-02-24T22:32:03.311808,14.83139347,.0019942,82.4993,242.1892,350.8038,9.2809,0,U,17912,999,86064,.19341E-4,.182E-5,0
COSMOS 1844,1987-041A,2022-02-24T23:02:54.686688,14.14139249,.002906,70.8956,261.4915,73.6456,286.7858,0,U,17973,999,79541,.15389E-3,.246E-5,0
SL-14 R/B,1987-055B,2022-02-24T18:20:21.529248,14.83391506,.0021081,82.4997,295.5012,194.1704,165.8922,0,U,18153,999,85129,.16664E-4,.161E-5,0
COSMOS 1867,1987-060A,2022-02-25T03:06:30.229056,14.31134392,.0020136,65.0101,112.0115,262.8286,97.0509,0,U,18187,999,80926,.52812E-5,-.86E-6,0
COSMOS 1892,1987-088A,2022-02-24T22:49:16.868352,15.18421136,.0016398,82.5009,21.9572,81.1990,279.1100,0,U,18421,999,87820,.10375E-3,.2174E-4,0
SL-14 R/B,1988-001B,2022-02-24T18:20:41.550720,14.83321920,.0020082,82.5158,139.1167,65.9414,51.8452,0,U,18749,999,82337,.1735E-4,.167E-5,0
COSMOS 1933,1988-020A,2022-02-24T21:43:25.742784,15.04236836,.0010795,82.5266,249.1684,202.8457,157.2291,0,U,18958,999,82788,.36275E-4,.533E-5,0
SL-3 R/B,1988-032B,2022-02-25T10:43:25.436352,15.03292327,.0034956,97.3903,60.3935,261.0244,98.7024,0,U,19046,999,83007,.24343E-4,.274E-5,0
