SL-3 R/B                
1 13819U 83010B   22056.13959933  .00001899  00000+0  94466-4 0  9990
2 13819  81.1165 316.7909 0031854  20.1299 340.1177 15.16703042133341
COSMOS 1455             
1 14032U 83037A   22056.41880797  .00002647  00000+0  12204-3 0  9990
2 14032  82.5163 191.7133 0017703  76.3805 283.9400 15.19693516121454
SL-3 R/B                
1 14208U 83075B   22056.46312775  .00001804  00000+0  10726-3 0  9999
2 14208  97.4699  33.9227 0037398 339.4305  20.5418 15.11969997106378
COSMOS 1500             
1 14372U 83099A   22055.67738563  .00002463  00000+0  11198-3 0  9992
2 14372  82.5124  87.4353 0013096 235.8744 124.1249 15.20212825 97471
COSMOS 1536             
1 14699U 84013A   22056.42852666  .00001225  00000+0  81670-4 0  9994
2 14699  82.5248 108.7528 0011797 328.9051  31.1476 15.06168827 71019
COSMOS 1544             
1 14819U 84027A   22056.51542378  .00004475  00000+0  15051-3 0  9998
2 14819  82.4800  99.7323 0014329 110.3697 249.9084 15.30431812 77532
SL-14 R/B               
1 14820U 84027B   22055.86144223  .00000212  00000+0  22646-4 0  9998
2 14820  82.5452 184.3807 0019150 161.5982 198.5930 14.83762709 50054
ERBS                    
1 15354U 84108B   22055.91102819  .00016689  00000+0  22174-3 0  9992
2 15354  57.0016 260.9201 0011297 137.8942 222.2989 15.58356710 63478
SL-8 R/B                
1 15483U 85006B   22055.54926523  .00000023  00000+0  16903-4 0  9997
2 15483  74.0441  90.2758 0018608   4.7875 103.7110 14.36424741942541
COSMOS 1626             
1 15494U 85009A   22055.85779597  .00003544  00000+0  13689-3 0  9991
2 15494  82.4807 331.3105 0003124 128.5593 231.5925 15.25934461 29449
SL-12 R/B(2)            
1 15772U 85042D   22055.92418855  .00000082  00000+0  59267-4 0  9999
2 15772  71.1099 319.4669 0037777 259.0340 175.0439 14.21318470904949
SL-14 R/B               
1 15945U 85069B   22056.46349045  .00000188  00000+0  19573-4 0  9997
2 15945  82.5304 327.3826 0020390  27.8941 332.3363 14.84142549975279
SL-3 R/B                
1 16111U 85090B   22055.59688902  .00243068  27121-4  43946-3 0  9992
2 16111  97.4338 284.8620 0005375  93.4893 266.7000 16.01550342 12025
SL-16 R/B               
1 16182U 85097B   22055.89709455  .00000245  00000+0  14763-3 0  9992
2 16182  71.0053   2.3610 0008489 327.8047  86.9967 14.16268357878537
SL-14 R/B               
1 16496U 86006B   22055.93006307  .00000221  00000+0  23418-4 0  9994
2 16496  82.5260 203.3897 0019481 168.4595 307.6486 14.84243374951531
COSMOS 1743             
1 16719U 86034A   22056.12272003  .00001503  00000+0  75062-4 0  9999
2 16719  82.5505 111.4976 0013360 100.6681 317.9151 15.16648138955307
SL-14 R/B               
1 16792U 86046B   22055.91752529  .00000227  00000+0  24574-4 0  9999
2 16792  82.4831  29.6222 0025401  52.0766 308.2739 14.83345187907770
SL-14 R/B               
1 16882U 86055B   22056.13416816  .00000178  00000+0  18711-4 0  9991
2 16882  82.5184  68.8306 0020472 153.7527 271.6586 14.83331793921943
AJISAI (EGS)            
1 16908U 86061A   22056.46903023 -.00000074  00000+0  16376-3 0  9994
2 16908  50.0096 303.3795 0011379 136.4064 279.3766 12.44495462284905
COSMOS 1812             
1 17295U 87003A   22055.78089066  .00002195  00000+0  11043-3 0  9998
2 17295  82.5109 256.8052 0002547 340.5232  19.5903 15.16739949918218
SL-14 R/B               
1 17567U 87024B   22056.40921617  .00000229  00000+0  24519-4 0  9999
2 17567  82.5288  34.3725 0020722  90.3305 270.0285 14.83865456890650
COSMOS 1833             
1 17589U 87027A   22055.79068151 -.00000158  00000+0 -58928-4 0  9996
2 17589  70.9220 183.6960 0027802 267.4030  92.3908 14.12924550802112
SL-16 R/B               
1 17590U 87027B   22055.68678105  .00000121  00000+0  84160-4 0  9997
2 17590  71.0035 141.5391 0006593 227.8167 132.2397 14.16814858806580
SL-14 R/B               
1 17912U 87038B   22055.93892722  .00000182  00000+0  19341-4 0  9994
2 17912  82.4993 242.1892 0019942 350.8038   9.2809 14.83139347860642
COSMOS 1844             
1 17973U 87041A   22055.96035517  .00000246  00000+0  15389-3 0  9997
2 17973  70.8956 261.4915 0029060  73.6456 286.7858 14.14139249795418
SL-14 R/B               
1 18153U 87055B   22055.76413807  .00000161  00000+0  16664-4 0  9997
2 18153  82.4997 295.5012 0021081 194.1704 165.8922 14.83391506851299
COSMOS 1867             
1 18187U 87060A   22056.12951654 -.00000086  00000+0  52812-5 0  9991
2 18187  65.0101 112.0115 0020136 262.8286  97.0509 14.31134392809263
COSMOS 1892             
1 18421U 87088A   22055.95088968  .00002174  00000+0  10375-3 0  9996
2 18421  82.5009  21.9572 0016398  81.1990 279.1100 15.18421136878200
SL-14 R/B               
1 18749U 88001B   22055.76436980  .00000167  00000+0  17350-4 0  9996
2 18749  82.5158 139.1167 0020082  65.9414  51.8452 14.83321920823370
COSMOS 1933             
1 18958U 88020A   22055.90515906  .00000533  00000+0  36275-4 0  9995
2 18958  82.5266 249.1684 0010795 202.8457 157.2291 15.04236836827884
SL-3 R/B                
1 19046U 88032B   22056.44682218  .00000274  00000+0  24343-4 0  9993
2 19046  97.3903  60.3935 0034956 261.0244  98.7024 15.03292327830077
